sat00629
1 00629U 63014G   20046.95885107  .00000004  00000-0  48165-3 0  9997
2 00629  87.3269  52.4540 0130071 232.7249 126.1686  8.65565824794026
